REAL                    
1 64875U 25154G   26068.72233414  .00022901  00000+0  82904-3 0  9994
2 64875  97.4133 137.2581 0001853 118.5876 241.5550 15.28408058 34830
STARLINK-35785          
1 67176U 25303P   26067.70032128  .00037067  00000+0  13493-2 0  9998
2 67176  42.9980 316.3187 0001646 260.8630  99.2036 15.27590097 12582
